start=new Date('2023-01-07T00:00:00.000Z').valueOf();
sats=[{"TLE_LINE1":"1 52832U 22062C   23006.89572277 -.00000657  00000-0 -23151-4 0  9996","MEAN_MOTION_DDOT":"0.0000000000000","MEAN_MOTION_DOT":"-0.00000657","MEAN_ELEMENT_THEORY":"SGP4","ARG_OF_PERICENTER":"41.9774","EPHEMERIS_TYPE":"0","TLE_LINE2":"2 52832  53.2155 191.6586 0002999  41.9774 318.1447 15.08847689 30995","RCS_SIZE":"LARGE","REF_FRAME":"TEME","PERIAPSIS":"537.647","LAUNCH_DATE":"2022-06-17","PERIOD":"95.437","RA_OF_ASC_NODE":"191.6586","APOAPSIS":"541.797","NORAD_CAT_ID":"52832","TIME_SYSTEM":"UTC","OBJECT_ID":"2022-062C","OBJECT_TYPE":"PAYLOAD","SITE":"AFETR","MEAN_MOTION":"15.08847689","DECAY_DATE":null,"REV_AT_EPOCH":"3099","COUNTRY_CODE":"US","INCLINATION":"53.2155","FILE":"3734255","MEAN_ANOMALY":"318.1447","GP_ID":"222344205","ECCENTRICITY":"0.00029990","ELEMENT_SET_NO":"999","CLASSIFICATION_TYPE":"U","EPOCH":"2023-01-06T21:29:50.447328","BSTAR":"-0.00002315100000","SEMIMAJOR_AXIS":"6917.857","OBJECT_NAME":"STARLINK-4083","CENTER_NAME":"EARTH"},{"GP_ID":"222344455","MEAN_ANOMALY":"318.4618","ELEMENT_SET_NO":"999","CLASSIFICATION_TYPE":"U","ECCENTRICITY":"0.00025680","EPOCH":"2023-01-06T21:24:32.500512","BSTAR":"0.00006077300000","OBJECT_NAME":"STARLINK-4086","SEMIMAJOR_AXIS":"6917.868","CENTER_NAME":"EARTH","MEAN_MOTION_DDOT":"0.0000000000000","TLE_LINE1":"1 52833U 22062D   23006.89204283  .00000679  00000-0  60773-4 0  9999","MEAN_MOTION_DOT":"0.00000679","ARG_OF_PERICENTER":"41.6569","MEAN_ELEMENT_THEORY":"SGP4","RCS_SIZE":"LARGE","EPHEMERIS_TYPE":"0","TLE_LINE2":"2 52833  53.2163 191.6765 0002568  41.6569 318.4618 15.08844205 30999","PERIOD":"95.437","LAUNCH_DATE":"2022-06-17","RA_OF_ASC_NODE":"191.6765","REF_FRAME":"TEME","PERIAPSIS":"537.956","TIME_SYSTEM":"UTC","APOAPSIS":"541.509","NORAD_CAT_ID":"52833","MEAN_MOTION":"15.08844205","SITE":"AFETR","OBJECT_TYPE":"PAYLOAD","DECAY_DATE":null,"OBJECT_ID":"2022-062D","INCLINATION":"53.2163","FILE":"3734255","COUNTRY_CODE":"US","REV_AT_EPOCH":"3099"},{"TLE_LINE1":"1 52834U 22062E   23006.88468869  .00000564  00000-0  53524-4 0  9990","MEAN_MOTION_DDOT":"0.0000000000000","MEAN_MOTION_DOT":"0.00000564","RCS_SIZE":"LARGE","EPHEMERIS_TYPE":"0","TLE_LINE2":"2 52834  53.2153 191.7004 0002453  40.5415 319.5759 15.08839505 30992","ARG_OF_PERICENTER":"40.5415","MEAN_ELEMENT_THEORY":"SGP4","TIME_SYSTEM":"UTC","APOAPSIS":"541.444","NORAD_CAT_ID":"52834","LAUNCH_DATE":"2022-06-17","PERIOD":"95.438","RA_OF_ASC_NODE":"191.7004","REF_FRAME":"TEME","PERIAPSIS":"538.050","INCLINATION":"53.2153","FILE":"3734255","COUNTRY_CODE":"US","REV_AT_EPOCH":"3099","SITE":"AFETR","MEAN_MOTION":"15.08839505","OBJECT_TYPE":"PAYLOAD","DECAY_DATE":null,"OBJECT_ID":"2022-062E","GP_ID":"222344707","MEAN_ANOMALY":"319.5759","EPOCH":"2023-01-06T21:13:57.102816","ELEMENT_SET_NO":"999","CLASSIFICATION_TYPE":"U","ECCENTRICITY":"0.00024530","BSTAR":"0.00005352400000","CENTER_NAME":"EARTH","OBJECT_NAME":"STARLINK-4108","SEMIMAJOR_AXIS":"6917.882"},{"MEAN_ANOMALY":"325.2026","GP_ID":"222345456","ECCENTRICITY":"0.00031960","CLASSIFICATION_TYPE":"U","ELEMENT_SET_NO":"999","EPOCH":"2023-01-06T14:47:05.849088","BSTAR":"0.00000863420000","SEMIMAJOR_AXIS":"6917.870","OBJECT_NAME":"STARLINK-4080","CENTER_NAME":"EARTH","MEAN_MOTION_DOT":"-0.00000151","TLE_LINE1":"1 52835U 22062F   23006.61603992 -.00000151  00000-0  86342-5 0  9998","MEAN_MOTION_DDOT":"0.0000000000000","MEAN_ELEMENT_THEORY":"SGP4","ARG_OF_PERICENTER":"34.9175","TLE_LINE2":"2 52835  53.2150 192.9213 0003196  34.9175 325.2026 15.08843426 30954","EPHEMERIS_TYPE":"0","RCS_SIZE":"LARGE","PERIAPSIS":"537.524","REF_FRAME":"TEME","RA_OF_ASC_NODE":"192.9213","LAUNCH_DATE":"2022-06-17","PERIOD":"95.437","NORAD_CAT_ID":"52835","APOAPSIS":"541.946","TIME_SYSTEM":"UTC","OBJECT_ID":"2022-062F","DECAY_DATE":null,"MEAN_MOTION":"15.08843426","SITE":"AFETR","OBJECT_TYPE":"PAYLOAD","COUNTRY_CODE":"US","REV_AT_EPOCH":"3095","FILE":"3734255","INCLINATION":"53.2150"},{"BSTAR":"-0.00009885000000","SEMIMAJOR_AXIS":"6917.882","OBJECT_NAME":"STARLINK-4043","CENTER_NAME":"EARTH","MEAN_ANOMALY":"320.5844","GP_ID":"222343706","ECCENTRICITY":"0.00023800","ELEMENT_SET_NO":"999","CLASSIFICATION_TYPE":"U","EPOCH":"2023-01-06T21:03:21.501216","REF_FRAME":"TEME","PERIAPSIS":"538.101","PERIOD":"95.438","LAUNCH_DATE":"2022-06-17","RA_OF_ASC_NODE":"191.7577","APOAPSIS":"541.394","NORAD_CAT_ID":"52836","TIME_SYSTEM":"UTC","OBJECT_ID":"2022-062G","OBJECT_TYPE":"PAYLOAD","SITE":"AFETR","MEAN_MOTION":"15.08839426","DECAY_DATE":null,"COUNTRY_CODE":"US","REV_AT_EPOCH":"3099","INCLINATION":"53.2174","FILE":"3734255","MEAN_MOTION_DDOT":"0.0000000000000","TLE_LINE1":"1 52836U 22062G   23006.87733219 -.00001861  00000-0 -98850-4 0  9999","MEAN_MOTION_DOT":"-0.00001861","MEAN_ELEMENT_THEORY":"SGP4","ARG_OF_PERICENTER":"39.5321","EPHEMERIS_TYPE":"0","TLE_LINE2":"2 52836  53.2174 191.7577 0002380  39.5321 320.5844 15.08839426 30994","RCS_SIZE":"LARGE"},{"PERIOD":"95.437","LAUNCH_DATE":"2022-06-17","RA_OF_ASC_NODE":"191.4859","REF_FRAME":"TEME","PERIAPSIS":"537.630","TIME_SYSTEM":"UTC","APOAPSIS":"541.851","NORAD_CAT_ID":"52837","SITE":"AFETR","MEAN_MOTION":"15.08841523","OBJECT_TYPE":"PAYLOAD","DECAY_DATE":null,"OBJECT_ID":"2022-062H","INCLINATION":"53.2142","FILE":"3734255","REV_AT_EPOCH":"3100","COUNTRY_CODE":"US","MEAN_MOTION_DDOT":"0.0000000000000","TLE_LINE1":"1 52837U 22062H   23006.93620580 -.00001539  00000-0 -78586-4 0  9999","MEAN_MOTION_DOT":"-0.00001539","ARG_OF_PERICENTER":"40.0696","MEAN_ELEMENT_THEORY":"SGP4","RCS_SIZE":"LARGE","EPHEMERIS_TYPE":"0","TLE_LINE2":"2 52837  53.2142 191.4859 0003051  40.0696 320.0521 15.08841523 31009","BSTAR":"-0.00007858600000","OBJECT_NAME":"STARLINK-4036","SEMIMAJOR_AXIS":"6917.876","CENTER_NAME":"EARTH","GP_ID":"222343956","MEAN_ANOMALY":"320.0521","ELEMENT_SET_NO":"999","CLASSIFICATION_TYPE":"U","ECCENTRICITY":"0.00030510","EPOCH":"2023-01-06T22:28:08.181120"},{"BSTAR":"-0.00004068800000","OBJECT_NAME":"STARLINK-4092","SEMIMAJOR_AXIS":"6917.896","CENTER_NAME":"EARTH","GP_ID":"222345206","MEAN_ANOMALY":"308.9242","ELEMENT_SET_NO":"999","CLASSIFICATION_TYPE":"U","ECCENTRICITY":"0.00019470","EPOCH":"2023-01-06T14:37:53.494752","LAUNCH_DATE":"2022-06-17","PERIOD":"95.438","RA_OF_ASC_NODE":"192.9582","REF_FRAME":"TEME","PERIAPSIS":"538.414","TIME_SYSTEM":"UTC","APOAPSIS":"541.107","NORAD_CAT_ID":"52838","SITE":"AFETR","MEAN_MOTION":"15.08835031","OBJECT_TYPE":"PAYLOAD","DECAY_DATE":null,"OBJECT_ID":"2022-062J","INCLINATION":"53.2147","FILE":"3734255","REV_AT_EPOCH":"3095","COUNTRY_CODE":"US","TLE_LINE1":"1 52838U 22062J   23006.60964693 -.00000936  00000-0 -40688-4 0  9992","MEAN_MOTION_DDOT":"0.0000000000000","MEAN_MOTION_DOT":"-0.00000936","ARG_OF_PERICENTER":"51.1924","MEAN_ELEMENT_THEORY":"SGP4","RCS_SIZE":"LARGE","EPHEMERIS_TYPE":"0","TLE_LINE2":"2 52838  53.2147 192.9582 0001947  51.1924 308.9242 15.08835031 30958"},{"BSTAR":"-0.00011946000000","SEMIMAJOR_AXIS":"6917.884","OBJECT_NAME":"STARLINK-4048","CENTER_NAME":"EARTH","MEAN_ANOMALY":"326.9404","GP_ID":"222344958","ECCENTRICITY":"0.00032620","ELEMENT_SET_NO":"999","CLASSIFICATION_TYPE":"U","EPOCH":"2023-01-06T14:20:36.937536","REF_FRAME":"TEME","PERIAPSIS":"537.493","PERIOD":"95.438","LAUNCH_DATE":"2022-06-17","RA_OF_ASC_NODE":"193.0089","APOAPSIS":"542.006","NORAD_CAT_ID":"52839","TIME_SYSTEM":"UTC","OBJECT_ID":"2022-062K","MEAN_MOTION":"15.08838765","SITE":"AFETR","OBJECT_TYPE":"PAYLOAD","DECAY_DATE":null,"REV_AT_EPOCH":"3095","COUNTRY_CODE":"US","INCLINATION":"53.2140","FILE":"3734255","TLE_LINE1":"1 52839U 22062K   23006.59764974 -.00002190  00000-0 -11946-3 0  9999","MEAN_MOTION_DDOT":"0.0000000000000","MEAN_MOTION_DOT":"-0.00002190","MEAN_ELEMENT_THEORY":"SGP4","ARG_OF_PERICENTER":"33.1792","EPHEMERIS_TYPE":"0","TLE_LINE2":"2 52839  53.2140 193.0089 0003262  33.1792 326.9404 15.08838765 30958","RCS_SIZE":"LARGE"},{"SEMIMAJOR_AXIS":"6917.876","OBJECT_NAME":"STARLINK-4049","CENTER_NAME":"EARTH","BSTAR":"-0.00004249600000","ECCENTRICITY":"0.00028410","ELEMENT_SET_NO":"999","CLASSIFICATION_TYPE":"U","EPOCH":"2023-01-06T12:50:32.129376","MEAN_ANOMALY":"321.5248","GP_ID":"222344206","OBJECT_ID":"2022-062L","OBJECT_TYPE":"PAYLOAD","SITE":"AFETR","MEAN_MOTION":"15.08841306","DECAY_DATE":null,"REV_AT_EPOCH":"3094","COUNTRY_CODE":"US","INCLINATION":"53.2147","FILE":"3734255","REF_FRAME":"TEME","PERIAPSIS":"537.776","LAUNCH_DATE":"2022-06-17","PERIOD":"95.437","RA_OF_ASC_NODE":"193.2858","APOAPSIS":"541.707","NORAD_CAT_ID":"52840","TIME_SYSTEM":"UTC","MEAN_ELEMENT_THEORY":"SGP4","ARG_OF_PERICENTER":"38.5947","EPHEMERIS_TYPE":"0","TLE_LINE2":"2 52840  53.2147 193.2858 0002841  38.5947 321.5248 15.08841306 30947","RCS_SIZE":"LARGE","TLE_LINE1":"1 52840U 22062L   23006.53509409 -.00000965  00000-0 -42496-4 0  9998","MEAN_MOTION_DDOT":"0.0000000000000","MEAN_MOTION_DOT":"-0.00000965"},{"CENTER_NAME":"EARTH","OBJECT_NAME":"STARLINK-4065","SEMIMAJOR_AXIS":"6917.857","BSTAR":"0.00007523500000","EPOCH":"2023-01-06T22:01:38.258688","CLASSIFICATION_TYPE":"U","ELEMENT_SET_NO":"999","ECCENTRICITY":"0.00033960","GP_ID":"222344456","MEAN_ANOMALY":"319.3693","FILE":"3734255","INCLINATION":"53.2138","REV_AT_EPOCH":"3100","COUNTRY_CODE":"US","DECAY_DATE":null,"SITE":"AFETR","OBJECT_TYPE":"PAYLOAD","MEAN_MOTION":"15.08847668","OBJECT_ID":"2022-062M","TIME_SYSTEM":"UTC","NORAD_CAT_ID":"52841","APOAPSIS":"542.071","RA_OF_ASC_NODE":"191.5737","PERIOD":"95.437","LAUNCH_DATE":"2022-06-17","PERIAPSIS":"537.373","REF_FRAME":"TEME","RCS_SIZE":"LARGE","TLE_LINE2":"2 52841  53.2138 191.5737 0003396  40.7553 319.3693 15.08847668 31003","EPHEMERIS_TYPE":"0","ARG_OF_PERICENTER":"40.7553","MEAN_ELEMENT_THEORY":"SGP4","MEAN_MOTION_DOT":"0.00000909","MEAN_MOTION_DDOT":"0.0000000000000","TLE_LINE1":"1 52841U 22062M   23006.91780392  .00000909  00000-0  75235-4 0  9996"}];
